[{"OBJECT_NAME":"STARLINK-5467","OBJECT_ID":"2023-021AJ","EPOCH":"2026-03-09T15:44:49.737408","MEAN_MOTION":14.98299745,"ECCENTRICITY":0.00034055,"INCLINATION":70.0014,"RA_OF_ASC_NODE":164.3842,"ARG_OF_PERICENTER":269.2197,"MEAN_ANOMALY":90.8572,"EPHEMERIS_TYPE":0,"CLASSIFICATION_TYPE":"U","NORAD_CAT_ID":55660,"ELEMENT_SET_NO":999,"REV_AT_EPOCH":16928,"BSTAR":0.00024740261,"MEAN_MOTION_DOT":2.858e-5,"MEAN_MOTION_DDOT":0},{"OBJECT_NAME":"DUMSAT","OBJECT_ID":"2000-009A","EPOCH":"2026-03-09T21:34:49.034496","MEAN_MOTION":14.97147245,"ECCENTRICITY":0.00231559,"INCLINATION":64.8536,"RA_OF_ASC_NODE":17.131,"ARG_OF_PERICENTER":263.9519,"MEAN_ANOMALY":95.8958,"EPHEMERIS_TYPE":0,"CLASSIFICATION_TYPE":"U","NORAD_CAT_ID":26086,"ELEMENT_SET_NO":999,"REV_AT_EPOCH":42337,"BSTAR":4.8857475e-5,"MEAN_MOTION_DOT":4.04e-6,"MEAN_MOTION_DDOT":0}]
